ONEWEB-0055             
1 45443U 20020V   24042.82462561 -.00000520  00000+0 -15027-2 0  9995
2 45443  87.8997 191.2943 0001576  96.5936 263.5371 13.11416251190389
ONEWEB-0093             
1 45444U 20020W   24042.49267003  .00000167  00000+0  43440-3 0  9999
2 45444  87.8996 191.3387 0001775  94.3183 265.8148 13.11414279190399
ONEWEB-0029             
1 45445U 20020X   24042.43583929 -.00000509  00000+0 -14730-2 0  9993
2 45445  87.8997 191.3640 0001735 104.4290 255.7030 13.11415760190362
ONEWEB-0068             
1 45446U 20020Y   24042.41068953  .00000434  00000+0  11886-2 0  9991
2 45446  87.8998 191.3537 0001698  95.6487 264.4835 13.11415307190307
ONEWEB-0046             
1 45447U 20020Z   24042.48455284  .00000530  00000+0  14595-2 0  9993
2 45447  87.8993 191.3510 0001664 116.4629 243.6670 13.11415143190323
ONEWEB-0063             
1 45448U 20020AA  24042.43747154 -.00000479  00000+0 -13867-2 0  9994
2 45448  87.8994 191.3630 0001401 115.5912 244.5360 13.11415807190404
ONEWEB-0019             
1 45449U 20020AB  24042.79298400  .00000318  00000+0  86113-3 0  9994
2 45449  87.9001 191.2903 0001342  96.7380 263.3900 13.11416353190305
ONEWEB-0094             
1 45450U 20020AC  24042.91668981 -.00024063  00000+0 -60703-1 0  9995
2 45450  87.9254 176.1420 0001693 103.4523  14.8811 13.19270235193541
ONEWEB-0087             
1 45451U 20020AD  24042.82543864 -.00000537  00000+0 -15515-2 0  9990
2 45451  87.8993 191.2650 0001827 106.6241 253.5087 13.11417440190351
ONEWEB-0082             
1 45452U 20020AE  24042.44558612 -.00000358  00000+0 -10466-2 0  9997
2 45452  87.8998 191.3383 0001528  98.3530 261.7772 13.11418595190384
ONEWEB-0050             
1 45453U 20020AF  24042.58334491 -.00017117  00000+0 -18455-2 0  9997
2 45453  87.9958  60.1909 0023866 153.9916 189.9701 14.88441637  5762
ONEWEB-0034             
1 45454U 20020AG  24042.77025840 -.00000482  00000+0 -13953-2 0  9999
2 45454  87.8998 191.2916 0001527 101.7074 258.4226 13.11419013190358
ONEWEB-0060             
1 45455U 20020AH  24042.47318976  .00000541  00000+0  14916-2 0  9996
2 45455  87.8999 191.3461 0001605 104.2485 255.8821 13.11416966190263
ONEWEB-0086             
1 45456U 20020AJ  24042.49104540  .00000100  00000+0  24672-3 0  9991
2 45456  87.8994 191.3488 0001972 101.7796 258.3553 13.11414144190325
ONEWEB-0088             
1 45457U 20020AK  24042.84980055  .00000387  00000+0  10557-2 0  9997
2 45457  87.8993 191.2484 0001642 104.5743 255.5567 13.11417638190311
ONEWEB-0102             
1 47258U 20100A   24042.38246891  .00000357  00000+0  95786-3 0  9994
2 47258  87.9044 161.1724 0001437 104.0960 256.0328 13.12446179152346
ONEWEB-0109             
1 47259U 20100B   24042.39040503  .00000477  00000+0  12908-2 0  9995
2 47259  87.9045 161.1335 0001504 101.1945 258.9352 13.12442939152171
ONEWEB-0110             
1 47260U 20100C   24042.33798223 -.00000023  00000+0 -10003-3 0  9994
2 47260  87.9037 161.1562 0001628  98.2812 261.8501 13.12441829152336
ONEWEB-0111             
1 47261U 20100D   24042.82876191 -.00000056  00000+0 -19089-3 0  9999
2 47261  87.9043 161.0498 0001555 102.1057 258.0246 13.12444116152231
ONEWEB-0114             
1 47262U 20100E   24042.32528456  .00000385  00000+0  10344-2 0  9990
2 47262  87.9040 161.1702 0001095 100.8130 259.3122 13.12442707152123
ONEWEB-0117             
1 47263U 20100F   24042.31734792  .00000511  00000+0  13848-2 0  9995
2 47263  87.9043 161.1415 0001687 107.2489 252.8824 13.12442756152135
ONEWEB-0118             
1 47264U 20100G   24042.80652105 -.00000341  00000+0 -98408-3 0  9996
2 47264  87.9044 161.0496 0001147 122.0737 238.0503 13.12442023152392
ONEWEB-0119             
1 47265U 20100H   24042.37769669  .00000191  00000+0  49498-3 0  9999
2 47265  87.9042 161.1724 0001667 102.0477 258.0838 13.12443960152318
ONEWEB-0120             
1 47266U 20100J   24042.32705175  .00000302  00000+0  79828-3 0  9991
2 47266  87.9046 161.1713 0001385 105.2176 254.9106 13.12930480152332
ONEWEB-0121             
1 47267U 20100K   24042.38881678  .00000390  00000+0  10490-2 0  9997
2 47267  87.9040 161.1554 0001774 103.1016 257.0311 13.12442835152257
ONEWEB-0122             
1 47268U 20100L   24042.84134237  .00000101  00000+0  24456-3 0  9999
2 47268  87.9051 161.0702 0001749 100.6016 259.5310 13.12441770152228
ONEWEB-0123             
1 47269U 20100M   24042.37928491  .00000213  00000+0  55786-3 0  9995
2 47269  87.9043 161.1710 0001569 104.3174 255.8129 13.12443683152307
ONEWEB-0124             
1 47270U 20100N   24042.82558289 -.00000212  00000+0 -62530-3 0  9997
2 47270  87.9044 161.0786 0001908 102.4982 257.6360 13.12444546152244
ONEWEB-0125             
1 47271U 20100P   24042.34274608 -.00000142  00000+0 -42897-3 0  9991
2 47271  87.9043 161.1317 0001786 117.1202 243.0109 13.12442488152240
ONEWEB-0126             
1 47272U 20100Q   24042.82795380 -.00000138  00000+0 -41983-3 0  9990
2 47272  87.9041 161.0473 0001490 102.9139 257.2156 13.12441828152374
ONEWEB-0127             
1 47273U 20100R   24042.33163553  .00000199  00000+0  51853-3 0  9990
2 47273  87.9045 161.1695 0001467 102.0832 258.0460 13.12442083152338
ONEWEB-0128             
1 47274U 20100S   24042.35386258 -.00000336  00000+0 -96992-3 0  9990
2 47274  87.9049 161.1608 0001754  90.2903 269.8427 13.12442925152353
ONEWEB-0129             
1 47275U 20100T   24042.33322468  .00000150  00000+0  38208-3 0  9990
2 47275  87.9043 161.1396 0000286   5.3178 354.7953 13.12442524152287
ONEWEB-0130             
1 47276U 20100U   24042.81923116 -.00000397  00000+0 -11383-2 0  9990
2 47276  87.9044 161.0538 0001580  97.0788 263.0520 13.12443161152313
ONEWEB-0131             
1 47277U 20100V   24042.35863270 -.00000320  00000+0 -92442-3 0  9996
2 47277  87.9046 161.1560 0001707 101.3086 258.8234 13.12443465152291
ONEWEB-0132             
1 47278U 20100W   24042.38722329  .00000438  00000+0  11826-2 0  9993
2 47278  87.9045 161.1519 0001869 106.8769 253.2564 13.12442780152195
ONEWEB-0133             
1 47279U 20100X   24042.40311071  .00000247  00000+0  65243-3 0  9996
2 47279  87.9038 161.1544 0001735 103.6895 256.4427 13.12441346152351
ONEWEB-0134             
1 47280U 20100Y   24042.37292976  .00000044  00000+0  87502-4 0  9994
2 47280  87.9037 161.1498 0001607  94.1151 266.0161 13.12448472152323
ONEWEB-0135             
1 47281U 20100Z   24042.34115945 -.00000195  00000+0 -57777-3 0  9991
2 47281  87.9042 161.1645 0001639 101.8733 258.2579 13.12441872152346
ONEWEB-0136             
1 47282U 20100AA  24042.82081754 -.00000348  00000+0 -10040-2 0  9996
2 47282  87.9043 161.0386 0001511  84.1215 276.0086 13.12443218152332
ONEWEB-0137             
1 47283U 20100AB  24042.77794606  .00000457  00000+0  12339-2 0  9990
2 47283  87.9038 161.0774 0001425 106.7527 253.3758 13.12442407152231
ONEWEB-0138             
1 47284U 20100AC  24042.37610602  .00000138  00000+0  34792-3 0  9994
2 47284  87.9039 161.1690 0001544 102.1485 257.9816 13.12444332152263
ONEWEB-0139             
1 47285U 20100AD  24042.34751255 -.00000337  00000+0 -97185-3 0  9990
2 47285  87.9045 161.1414 0001604 101.2284 258.9025 13.12442711152339
ONEWEB-0140             
1 47286U 20100AE  24042.36975035  .00000050  00000+0  10271-3 0  9998
2 47286  87.9039 161.1456 0001597  97.8749 262.2561 13.12444329152303
ONEWEB-0141             
1 47287U 20100AF  24042.38960638  .00000449  00000+0  12121-2 0  9991
2 47287  87.9041 161.1393 0001635 113.2919 246.8381 13.12443025152290
ONEWEB-0142             
1 47288U 20100AG  24042.38324863  .00000378  00000+0  10146-2 0  9992
2 47288  87.9041 161.1337 0001314 104.4289 255.6985 13.12444530152284
ONEWEB-0143             
1 47289U 20100AH  24042.33639854  .00000018  00000+0  15115-4 0  9991
2 47289  87.9042 161.1618 0001652 107.9211 252.2098 13.12441702152259
ONEWEB-0144             
1 47290U 20100AJ  24042.38563231  .00000391  00000+0  10513-2 0  9992
2 47290  87.9041 161.1364 0001212  98.1043 262.0223 13.12444523152189
ONEWEB-0145             
1 47291U 20100AK  24042.81446270 -.00000432  00000+0 -12363-2 0  9997
2 47291  87.9043 161.0754 0001485 104.9582 255.1711 13.12442458152438
ONEWEB-0146             
1 47292U 20100AL  24042.35227429 -.00000277  00000+0 -80402-3 0  9997
2 47292  87.9043 161.1488 0002105 109.6882 250.4474 13.12442909152287
ONEWEB-0147             
1 47293U 20100AM  24042.39517223  .00000394  00000+0  10607-2 0  9993
2 47293  87.9039 161.1390 0001610  93.5814 266.5498 13.12442224152184
ONEWEB-0115             
1 48042U 21025A   24042.25363226  .00000001  00000+0 -33282-4 0  9992
2 48042  87.8994 130.8242 0001935 104.2766 255.8578 13.13470499141107
ONEWEB-0152             
1 48043U 21025B   24042.26633228 -.00000220  00000+0 -63873-3 0  9998
2 48043  87.8998 130.8139 0001851 101.5638 258.5699 13.13469778141069
ONEWEB-0153             
1 48044U 21025C   24042.32028918  .00000275  00000+0  71731-3 0  9990
2 48044  87.9002 130.7880 0001685 103.5471 256.5846 13.13470816141068
ONEWEB-0154             
1 48045U 21025D   24042.77418442  .00000364  00000+0  96098-3 0  9997
2 48045  87.8999 130.7132 0001790 103.9409 256.1919 13.13470352141090
ONEWEB-0116             
1 48046U 21025E   24042.28220572 -.00000049  00000+0 -16985-3 0  9998
2 48046  87.9000 130.7756 0002003 104.2152 255.9200 13.13470337141165
ONEWEB-0150             
1 48047U 21025F   24042.25681077 -.00000038  00000+0 -13984-3 0  9991
2 48047  87.8996 130.8071 0001638 107.0458 253.0850 13.13469562141059
ONEWEB-0107             
1 48048U 21025G   24042.25840197 -.00000031  00000+0 -11871-3 0  9998
2 48048  87.8996 130.8049 0001466 109.1271 251.0017 13.13470033141036
ONEWEB-0101             
1 48049U 21025H   24042.29808420  .00000268  00000+0  69863-3 0  9990
2 48049  87.9001 130.8057 0001724  99.3139 260.8185 13.13469693141016
